HIMAWARI-9
1 41836U 16064A   26179.97475897 -.00000264  00000+0  00000+0 0  9991
2 41836   0.0151  71.9422 0001218  45.9539 290.8317  1.00270302 35321
